[{"OBJECT_NAME":"HAWK-C","OBJECT_ID":"2018-099AT","EPOCH":"2026-03-09T16:08:34.251360","MEAN_MOTION":15.26407167,"ECCENTRICITY":0.00403625,"INCLINATION":97.4027,"RA_OF_ASC_NODE":122.6817,"ARG_OF_PERICENTER":277.4052,"MEAN_ANOMALY":82.2601,"EPHEMERIS_TYPE":0,"CLASSIFICATION_TYPE":"U","NORAD_CAT_ID":43799,"ELEMENT_SET_NO":999,"REV_AT_EPOCH":39872,"BSTAR":0.00035662773,"MEAN_MOTION_DOT":9.431e-5,"MEAN_MOTION_DDOT":0},{"OBJECT_NAME":"STARLINK-36198","OBJECT_ID":"2025-303E","EPOCH":"2026-03-09T16:00:03.000096","MEAN_MOTION":15.27564344,"ECCENTRICITY":0.0001517,"INCLINATION":43.0009,"RA_OF_ASC_NODE":311.2223,"ARG_OF_PERICENTER":270.5874,"MEAN_ANOMALY":221.4743,"EPHEMERIS_TYPE":0,"CLASSIFICATION_TYPE":"U","NORAD_CAT_ID":67167,"ELEMENT_SET_NO":999,"REV_AT_EPOCH":581,"BSTAR":0.0014632686,"MEAN_MOTION_DOT":0.00040204,"MEAN_MOTION_DDOT":0}]
